[{"OBJECT_NAME":"KX-09","OBJECT_ID":"2019-058B","EPOCH":"2026-03-09T23:04:56.318016","MEAN_MOTION":14.96388453,"ECCENTRICITY":0.00095225,"INCLINATION":97.7825,"RA_OF_ASC_NODE":82.8152,"ARG_OF_PERICENTER":321.3855,"MEAN_ANOMALY":38.6684,"EPHEMERIS_TYPE":0,"CLASSIFICATION_TYPE":"U","NORAD_CAT_ID":44520,"ELEMENT_SET_NO":999,"REV_AT_EPOCH":35519,"BSTAR":0.00022385026,"MEAN_MOTION_DOT":2.479e-5,"MEAN_MOTION_DDOT":0},{"OBJECT_NAME":"STARLINK-35476","OBJECT_ID":"2025-280E","EPOCH":"2026-03-09T21:33:09.277920","MEAN_MOTION":14.98331795,"ECCENTRICITY":0.00026365,"INCLINATION":70.0019,"RA_OF_ASC_NODE":334.0691,"ARG_OF_PERICENTER":266.3265,"MEAN_ANOMALY":93.7592,"EPHEMERIS_TYPE":0,"CLASSIFICATION_TYPE":"U","NORAD_CAT_ID":66825,"ELEMENT_SET_NO":999,"REV_AT_EPOCH":1610,"BSTAR":0.00027541803,"MEAN_MOTION_DOT":3.195e-5,"MEAN_MOTION_DDOT":0}]
